{"type": "FeatureCollection", "features": [ {"type": "Feature", "properties": {"norad_id": 38212, "name": "COSMOS 2251 DEB", "group": "cosmos-2251-debris", "lat": -35.66917313314939, "lon": 47.36080280228674, "alt_km": 703.4159802946524, "timestamp": "2025-12-21T14:40:48.316899+00:00", "meta": {"OBJECT_NAME": "COSMOS 2251 DEB", "OBJECT_ID": "1993-036BTC", "EPOCH": "2025-12-19T04:21:29.490912", "MEAN_MOTION": 14.77722254, "ECCENTRICITY": 0.0092064, "INCLINATION": 74.0528, "RA_OF_ASC_NODE": 63.9673, "ARG_OF_PERICENTER": 129.0689, "MEAN_ANOMALY": 231.8724, "EPHEMERIS_TYPE": 0, "CLASSIFICATION_TYPE": "U", "NORAD_CAT_ID": 38212, "ELEMENT_SET_NO": 999, "REV_AT_EPOCH": 81405, "BSTAR": 0.00027193732, "MEAN_MOTION_DOT": 2.056e-05, "MEAN_MOTION_DDOT": 0}, "tle": {"line1": "1 38212U 93036BTC 25353.18159133  .00002056  00000+0  27194-3 0  9994", "line2": "2 38212  74.0528  63.9673 0092064 129.0689 231.8724 14.77722254814050"}}, "geometry": {"type": "Point", "coordinates": [47.36080280228674, -35.66917313314939]}}, {"type": "Feature", "properties": {"norad_id": 38220, "name": "COSMOS 2251 DEB", "group": "cosmos-2251-debris", "lat": -61.07728109723134, "lon": -98.31609161974181, "alt_km": 596.9203956485217, "timestamp": "2025-12-21T14:40:48.316923+00:00", "meta": {"OBJECT_NAME": "COSMOS 2251 DEB", "OBJECT_ID": "1993-036BTL", "EPOCH": "2025-12-20T21:30:21.732768", "MEAN_MOTION": 14.93346888, "ECCENTRICITY": 0.0005492, "INCLINATION": 74.0142, "RA_OF_ASC_NODE": 51.8714, "ARG_OF_PERICENTER": 21.6922, "MEAN_ANOMALY": 338.4493, "EPHEMERIS_TYPE": 0, "CLASSIFICATION_TYPE": "U", "NORAD_CAT_ID": 38220, "ELEMENT_SET_NO": 999, "REV_AT_EPOCH": 71492, "BSTAR": 0.0017296, "MEAN_MOTION_DOT": 0.00018156, "MEAN_MOTION_DDOT": 0}, "tle": {"line1": "1 38220U 93036BTL 25354.89608487  .00018156  00000+0  17296-2 0  9992", "line2": "2 38220  74.0142  51.8714 0005492  21.6922 338.4493 14.93346888714924"}}, "geometry": {"type": "Point", "coordinates": [-98.31609161974181, -61.07728109723134]}}, {"type": "Feature", "properties": {"norad_id": 38479, "name": "COSMOS 2251 DEB", "group": "cosmos-2251-debris", "lat": 60.940255797268435, "lon": -161.02324898486336, "alt_km": 809.670321255011, "timestamp": "2025-12-21T14:40:48.316947+00:00", "meta": {"OBJECT_NAME": "COSMOS 2251 DEB", "OBJECT_ID": "1993-036BTP", "EPOCH": "2025-12-20T18:25:43.398624", "MEAN_MOTION": 14.38374668, "ECCENTRICITY": 0.00841363, "INCLINATION": 74.006, "RA_OF_ASC_NODE": 169.459, "ARG_OF_PERICENTER": 276.881, "MEAN_ANOMALY": 100.4899, "EPHEMERIS_TYPE": 0, "CLASSIFICATION_TYPE": "U", "NORAD_CAT_ID": 38479, "ELEMENT_SET_NO": 999, "REV_AT_EPOCH": 64803, "BSTAR": 0.0011122606, "MEAN_MOTION_DOT": 3.506e-05, "MEAN_MOTION_DDOT": 0}, "tle": {"line1": "1 38479U 93036BTP 25354.76786341  .00003506  00000+0  11123-2 0  9996", "line2": "2 38479  74.0060 169.4590 0084136 276.8810 100.4899 14.38374668648030"}}, "geometry": {"type": "Point", "coordinates": [-161.02324898486336, 60.940255797268435]}}, {"type": "Feature", "properties": {"norad_id": 38481, "name": "COSMOS 2251 DEB", "group": "cosmos-2251-debris", "lat": 22.77675260085739, "lon": -0.8241625322875115, "alt_km": 915.991422805937, "timestamp": "2025-12-21T14:40:48.316963+00:00", "meta": {"OBJECT_NAME": "COSMOS 2251 DEB", "OBJECT_ID": "1993-036BTR", "EPOCH": "2025-12-17T17:37:11.726400", "MEAN_MOTION": 13.94852214, "ECCENTRICITY": 0.02348213, "INCLINATION": 73.9324, "RA_OF_ASC_NODE": 358.9239, "ARG_OF_PERICENTER": 298.2644, "MEAN_ANOMALY": 59.4964, "EPHEMERIS_TYPE": 0, "CLASSIFICATION_TYPE": "U", "NORAD_CAT_ID": 38481, "ELEMENT_SET_NO": 999, "REV_AT_EPOCH": 59130, "BSTAR": 0.0012605173, "MEAN_MOTION_DOT": 2.103e-05, "MEAN_MOTION_DDOT": 0}, "tle": {"line1": "1 38481U 93036BTR 25351.73416350  .00002103  00000+0  12605-2 0  9991", "line2": "2 38481  73.9324 358.9239 0234821 298.2644  59.4964 13.94852214591302"}}, "geometry": {"type": "Point", "coordinates": [-0.8241625322875115, 22.77675260085739]}}, {"type": "Feature", "properties": {"norad_id": 38483, "name": "COSMOS 2251 DEB", "group": "cosmos-2251-debris", "lat": 49.33926174115828, "lon": 156.70785020412964, "alt_km": 721.2178446356966, "timestamp": "2025-12-21T14:40:48.316974+00:00", "meta": {"OBJECT_NAME": "COSMOS 2251 DEB", "OBJECT_ID": "1993-036BTT", "EPOCH": "2025-12-12T08:16:48.530496", "MEAN_MOTION": 14.28787654, "ECCENTRICITY": 0.01107994, "INCLINATION": 74.262, "RA_OF_ASC_NODE": 12.4521, "ARG_OF_PERICENTER": 118.0167, "MEAN_ANOMALY": 243.2246, "EPHEMERIS_TYPE": 0, "CLASSIFICATION_TYPE": "U", "NORAD_CAT_ID": 38483, "ELEMENT_SET_NO": 999, "REV_AT_EPOCH": 63472, "BSTAR": 0.0012977102, "MEAN_MOTION_DOT": 3.471e-05, "MEAN_MOTION_DDOT": 0}, "tle": {"line1": "1 38483U 93036BTT 25346.34500614  .00003471  00000+0  12977-2 0  9992", "line2": "2 38483  74.2620  12.4521 0110799 118.0167 243.2246 14.28787654634722"}}, "geometry": {"type": "Point", "coordinates": [156.70785020412964, 49.33926174115828]}}, {"type": "Feature", "properties": {"norad_id": 38486, "name": "COSMOS 2251 DEB", "group": "cosmos-2251-debris", "lat": 73.92483134554466, "lon": -81.02659580753827, "alt_km": 653.2689831651005, "timestamp": "2025-12-21T14:40:48.316984+00:00", "meta": {"OBJECT_NAME": "COSMOS 2251 DEB", "OBJECT_ID": "1993-036BTW", "EPOCH": "2025-12-19T21:49:44.280192", "MEAN_MOTION": 14.73429029, "ECCENTRICITY": 0.0030516, "INCLINATION": 73.9403, "RA_OF_ASC_NODE": 190.8021, "ARG_OF_PERICENTER": 334.2314, "MEAN_ANOMALY": 90.8371, "EPHEMERIS_TYPE": 0, "CLASSIFICATION_TYPE": "U", "NORAD_CAT_ID": 38486, "ELEMENT_SET_NO": 999, "REV_AT_EPOCH": 75540, "BSTAR": 0.0013432, "MEAN_MOTION_DOT": 8.756e-05, "MEAN_MOTION_DDOT": 0}, "tle": {"line1": "1 38486U 93036BTW 25353.90954028  .00008756  00000+0  13432-2 0  9995", "line2": "2 38486  73.9403 190.8021 0030516 334.2314  90.8371 14.73429029755403"}}, "geometry": {"type": "Point", "coordinates": [-81.02659580753827, 73.92483134554466]}}, {"type": "Feature", "properties": {"norad_id": 38487, "name": "COSMOS 2251 DEB", "group": "cosmos-2251-debris", "lat": -19.6539551686993, "lon": -158.8868735793676, "alt_km": 503.02938172214726, "timestamp": "2025-12-21T14:40:48.316994+00:00", "meta": {"OBJECT_NAME": "COSMOS 2251 DEB", "OBJECT_ID": "1993-036BTX", "EPOCH": "2025-12-20T18:49:06.164832", "MEAN_MOTION": 15.17869256, "ECCENTRICITY": 0.0020834, "INCLINATION": 73.9734, "RA_OF_ASC_NODE": 16.9556, "ARG_OF_PERICENTER": 189.3194, "MEAN_ANOMALY": 170.7618, "EPHEMERIS_TYPE": 0, "CLASSIFICATION_TYPE": "U", "NORAD_CAT_ID": 38487, "ELEMENT_SET_NO": 999, "REV_AT_EPOCH": 66922, "BSTAR": 0.001222, "MEAN_MOTION_DOT": 0.00024942, "MEAN_MOTION_DDOT": 0}, "tle": {"line1": "1 38487U 93036BTX 25354.78409913  .00024942  00000+0  12220-2 0  9990", "line2": "2 38487  73.9734  16.9556 0020834 189.3194 170.7618 15.17869256669224"}}, "geometry": {"type": "Point", "coordinates": [-158.8868735793676, -19.6539551686993]}}, {"type": "Feature", "properties": {"norad_id": 39109, "name": "COSMOS 2251 DEB", "group": "cosmos-2251-debris", "lat": 60.909008601161574, "lon": -121.18494508142645, "alt_km": 670.6816907720877, "timestamp": "2025-12-21T14:40:48.317004+00:00", "meta": {"OBJECT_NAME": "COSMOS 2251 DEB", "OBJECT_ID": "1993-036BTY", "EPOCH": "2025-12-19T23:30:41.180256", "MEAN_MOTION": 14.70762004, "ECCENTRICITY": 0.005957, "INCLINATION": 74.0412, "RA_OF_ASC_NODE": 211.0292, "ARG_OF_PERICENTER": 312.7483, "MEAN_ANOMALY": 114.4468, "EPHEMERIS_TYPE": 0, "CLASSIFICATION_TYPE": "U", "NORAD_CAT_ID": 39109, "ELEMENT_SET_NO": 999, "REV_AT_EPOCH": 65280, "BSTAR": 0.00029802, "MEAN_MOTION_DOT": 1.835e-05, "MEAN_MOTION_DDOT": 0}, "tle": {"line1": "1 39109U 93036BTY 25353.97964329  .00001835  00000+0  29802-3 0  9990", "line2": "2 39109  74.0412 211.0292 0059570 312.7483 114.4468 14.70762004652803"}}, "geometry": {"type": "Point", "coordinates": [-121.18494508142645, 60.909008601161574]}}, {"type": "Feature", "properties": {"norad_id": 39110, "name": "COSMOS 2251 DEB", "group": "cosmos-2251-debris", "lat": -59.3195483078562, "lon": 15.154256401860803, "alt_km": 596.8871834211213, "timestamp": "2025-12-21T14:40:48.317014+00:00", "meta": {"OBJECT_NAME": "COSMOS 2251 DEB", "OBJECT_ID": "1993-036BTZ", "EPOCH": "2025-12-17T22:04:59.920608", "MEAN_MOTION": 14.72312711, "ECCENTRICITY": 0.00972569, "INCLINATION": 73.9594, "RA_OF_ASC_NODE": 51.3772, "ARG_OF_PERICENTER": 282.7235, "MEAN_ANOMALY": 255.0933, "EPHEMERIS_TYPE": 0, "CLASSIFICATION_TYPE": "U", "NORAD_CAT_ID": 39110, "ELEMENT_SET_NO": 999, "REV_AT_EPOCH": 62560, "BSTAR": 0.00028872963, "MEAN_MOTION_DOT": 1.929e-05, "MEAN_MOTION_DDOT": 0}, "tle": {"line1": "1 39110U 93036BTZ 25351.92013797  .00001929  00000+0  28873-3 0  9990", "line2": "2 39110  73.9594  51.3772 0097256 282.7235 255.0933 14.72312711625601"}}, "geometry": {"type": "Point", "coordinates": [15.154256401860803, -59.3195483078562]}}, {"type": "Feature", "properties": {"norad_id": 39111, "name": "COSMOS 2251 DEB", "group": "cosmos-2251-debris", "lat": 29.574566819009675, "lon": -166.69881645194792, "alt_km": 523.3267298000546, "timestamp": "2025-12-21T14:40:48.317025+00:00", "meta": {"OBJECT_NAME": "COSMOS 2251 DEB", "OBJECT_ID": "1993-036BUA", "EPOCH": "2025-12-01T22:58:55.551360", "MEAN_MOTION": 15.11912111, "ECCENTRICITY": 0.00109111, "INCLINATION": 74.0059, "RA_OF_ASC_NODE": 63.5328, "ARG_OF_PERICENTER": 39.1207, "MEAN_ANOMALY": 321.0773, "EPHEMERIS_TYPE": 0, "CLASSIFICATION_TYPE": "U", "NORAD_CAT_ID": 39111, "ELEMENT_SET_NO": 999, "REV_AT_EPOCH": 8982, "BSTAR": 0.0056424119, "MEAN_MOTION_DOT": 0.00098096, "MEAN_MOTION_DDOT": 0}, "tle": {"line1": "1 39111U 93036BUA 25335.95758740  .00098096  00000+0  56424-2 0  9993", "line2": "2 39111  74.0059  63.5328 0010911  39.1207 321.0773 15.11912111 89826"}}, "geometry": {"type": "Point", "coordinates": [-166.69881645194792, 29.574566819009675]}}]}